OBJECT_NAME,OBJECT_ID,EPOCH,MEAN_MOTION,ECCENTRICITY,INCLINATION,RA_OF_ASC_NODE,ARG_OF_PERICENTER,MEAN_ANOMALY,EPHEMERIS_TYPE,CLASSIFICATION_TYPE,NORAD_CAT_ID,ELEMENT_SET_NO,REV_AT_EPOCH,BSTAR,MEAN_MOTION_DOT,MEAN_MOTION_DDOT
KUIPER-00614,2026-151L,2026-07-22T07:50:28.791168,15.38250746,.00018565,51.8787,145.7868,70.9131,289.2057,0,U,69773,999,311,.65843179E-3,.24895E-3,0
KUIPER-00615,2026-151M,2026-07-22T14:00:03.000384,15.35581029,.0006503,51.8777,144.7099,173.8066,93.2398,0,U,69774,999,198,-.34482507E-1,-.1109616E-1,0
KUIPER-00616,2026-151N,2026-07-22T07:47:09.464640,15.38470998,.0002494,51.8783,145.7754,136.6943,223.4241,0,U,69775,999,311,.79913533E-3,.30543E-3,0
KUIPER-00617,2026-151P,2026-07-22T07:57:00.334368,15.37923317,.00037634,51.8790,145.8179,158.8968,201.2175,0,U,69776,999,311,.67016854E-3,.25078E-3,0
KUIPER-00619,2026-151Q,2026-07-22T09:16:28.352064,15.38677116,.00022725,51.8802,145.4394,62.5028,297.6190,0,U,69777,999,312,.73300525E-3,.28164E-3,0
KUIPER-00621,2026-151R,2026-07-22T07:47:23.946144,15.38401696,.00020307,51.8790,145.7753,115.3412,244.7786,0,U,69778,999,311,.66445906E-3,.25253E-3,0
KUIPER-00622,2026-151S,2026-07-22T14:00:03.000384,15.35604480,.00067391,51.8733,144.7299,174.4365,78.9200,0,U,69779,999,378,-.71555155E-2,-.244171E-2,0
KUIPER-00623,2026-151T,2026-07-22T12:44:22.233696,15.37496948,.00048278,51.8777,144.9054,155.3361,204.7857,0,U,69780,999,314,.61410102E-3,.22623E-3,0
KUIPER-00626,2026-151U,2026-07-22T14:00:03.000384,15.34549745,.00099393,51.8722,144.9312,189.6229,321.2669,0,U,69781,999,414,.20183633E-3,.6491E-4,0
KUIPER-00627,2026-151V,2026-07-22T07:09:50.958144,15.34387789,.00106274,51.8698,146.3318,196.8605,163.2029,0,U,69782,999,310,.6363362E-3,.21227E-3,0
KUIPER-00629,2026-151W,2026-07-22T14:00:03.000384,15.25835360,.000613,51.8822,145.1138,185.1628,261.8680,0,U,69783,999,347,-.47671134E-1,-.1128754E-1,0
KUIPER-00631,2026-151X,2026-07-22T14:00:03.000384,15.25969266,.00077763,51.8783,145.0687,187.9306,268.5991,0,U,69784,999,130,-.48882315E-1,-.1175453E-1,0
KUIPER-00634,2026-151Y,2026-07-22T07:58:00.842880,15.37878188,.00033807,51.8767,145.8239,158.9094,201.2033,0,U,69785,999,311,.66761944E-3,.24942E-3,0
KUIPER-00639,2026-151Z,2026-07-22T13:16:17.958432,15.34565763,.00097129,51.8695,145.0394,184.7792,175.3102,0,U,69786,999,314,.68427203E-3,.22985E-3,0
KUIPER-00641,2026-151AA,2026-07-22T07:12:40.257216,15.33988190,.00116071,51.8685,146.3427,193.7001,166.3671,0,U,69787,999,310,-.8772709E-3,-.29618E-3,0
KUIPER-00644,2026-151AB,2026-07-22T11:28:05.838240,15.36592720,.0008338,51.8738,145.2942,194.6663,165.4083,0,U,69788,999,312,.18284439E-3,.6254E-4,0
KUIPER-00646,2026-151AC,2026-07-22T13:12:14.917824,15.35303516,.00097808,51.8706,145.0228,190.0094,170.0698,0,U,69789,999,314,.60534402E-3,.20773E-3,0
KUIPER-00647,2026-151AD,2026-07-22T13:21:39.811392,15.34698035,.00107986,51.8676,145.0597,193.3294,166.7408,0,U,69790,999,314,.58681297E-3,.19739E-3,0
KUIPER-00662,2026-151AE,2026-07-22T14:00:03.000384,15.27880581,.00083082,51.8780,145.0517,179.0220,254.0427,0,U,69791,999,216,-.43172647E-1,-.1092383E-1,0
LINK,2026-152A,2026-07-21T11:36:42.787584,15.67728585,.00235185,20.5930,278.9369,85.5169,274.7964,0,U,69792,999,284,.87541489E-3,.104063E-2,0
2026-152B,2026-152B,2026-07-22T12:33:56.409984,15.65358949,.00231723,20.5973,271.3332,93.3702,266.9396,0,U,69793,999,300,.53785725E-3,.58102E-3,0
ISS OBJECT YJ,1998-067YJ,2026-07-21T21:12:33.437376,15.50326616,.0007671,51.6312,128.2581,334.3906,25.6702,0,U,69794,999,303,.64629776E-3,.37067E-3,0
ISS OBJECT YK,1998-067YK,2026-07-21T19:29:29.923296,15.51228298,.00063753,51.6315,128.5309,340.1487,19.9253,0,U,69795,999,302,.10545705E-2,.62951E-3,0
ISS OBJECT YL,1998-067YL,2026-07-22T00:11:01.329792,15.50892192,.0008539,51.6317,127.5857,335.7584,24.3003,0,U,69796,999,304,.86060866E-3,.50624E-3,0
ISS OBJECT YM,1998-067YM,2026-07-20T01:46:35.225184,15.50880460,.0009481,51.6311,137.1739,319.6197,40.4088,0,U,69797,999,273,.86101476E-3,.50643E-3,0
ISS OBJECT YN,1998-067YN,2026-07-22T00:13:03.456192,15.50596645,.00090855,51.6321,127.5954,339.1650,20.8968,0,U,69798,999,305,.57201763E-3,.3307E-3,0
PROVES-ELECTRA,1998-067YP,2026-07-22T00:10:20.067744,15.50922619,.0009554,51.6319,127.5825,327.4640,32.5760,0,U,69799,999,304,.84214776E-3,.49593E-3,0
QIANFAN-201,2026-153A,2026-07-22T13:13:20.580096,14.22095810,.00085803,88.9930,358.2007,153.9697,206.1927,0,U,69800,999,259,.15216294E-3,.351E-5,0
QIANFAN-202,2026-153B,2026-07-22T12:24:11.765376,14.18845157,.00075555,88.9930,358.2143,153.4407,206.7171,0,U,69801,999,258,.8048211E-4,.182E-5,0
QIANFAN-203,2026-153C,2026-07-22T12:09:05.742144,14.19389708,.00081278,88.9930,358.2127,155.2626,204.8955,0,U,69802,999,258,.80454751E-4,.183E-5,0
