KUIPER-00614            
1 69773U 26151L   26203.32672212  .00024895  00000+0  65843-3 0  9991
2 69773  51.8787 145.7868 0001856  70.9131 289.2057 15.38250746  3119
KUIPER-00615            
1 69774U 26151M   26203.58336806 -.01109616  00000+0 -34483-1 0  9998
2 69774  51.8777 144.7099 0006503 173.8066  93.2398 15.35581029  1980
KUIPER-00616            
1 69775U 26151N   26203.32441510  .00030543  00000+0  79914-3 0  9999
2 69775  51.8783 145.7754 0002494 136.6943 223.4241 15.38470998  3119
KUIPER-00617            
1 69776U 26151P   26203.33125387  .00025078  00000+0  67017-3 0  9990
2 69776  51.8790 145.8179 0003763 158.8968 201.2175 15.37923317  3110
KUIPER-00619            
1 69777U 26151Q   26203.38643926  .00028164  00000+0  73301-3 0  9992
2 69777  51.8802 145.4394 0002272  62.5028 297.6190 15.38677116  3123
KUIPER-00621            
1 69778U 26151R   26203.32458271  .00025253  00000+0  66446-3 0  9992
2 69778  51.8790 145.7753 0002030 115.3412 244.7786 15.38401696  3119
KUIPER-00622            
1 69779U 26151S   26203.58336806 -.00244171  00000+0 -71555-2 0  9990
2 69779  51.8733 144.7299 0006739 174.4365  78.9200 15.35604480  3788
KUIPER-00623            
1 69780U 26151T   26203.53081289  .00022623  00000+0  61410-3 0  9993
2 69780  51.8777 144.9054 0004827 155.3361 204.7857 15.37496948  3146
KUIPER-00626            
1 69781U 26151U   26203.58336806  .00006491  00000+0  20184-3 0  9995
2 69781  51.8722 144.9312 0009939 189.6229 321.2669 15.34549745  4144
KUIPER-00627            
1 69782U 26151V   26203.29850646  .00021227  00000+0  63634-3 0  9998
2 69782  51.8698 146.3318 0010627 196.8605 163.2029 15.34387789  3100
KUIPER-00629            
1 69783U 26151W   26203.58336806 -.01128754  00000+0 -47671-1 0  9995
2 69783  51.8822 145.1138 0006130 185.1628 261.8680 15.25835360  3478
KUIPER-00631            
1 69784U 26151X   26203.58336806 -.01175453  00000+0 -48882-1 0  9999
2 69784  51.8783 145.0687 0007776 187.9306 268.5991 15.25969266  1305
KUIPER-00634            
1 69785U 26151Y   26203.33195420  .00024942  00000+0  66762-3 0  9990
2 69785  51.8767 145.8239 0003380 158.9094 201.2033 15.37878188  3115
KUIPER-00639            
1 69786U 26151Z   26203.55298563  .00022985  00000+0  68427-3 0  9992
2 69786  51.8695 145.0394 0009712 184.7792 175.3102 15.34565763  3147
KUIPER-00641            
1 69787U 26151AA  26203.30046594 -.00029618  00000+0 -87727-3 0  9997
2 69787  51.8685 146.3427 0011607 193.7001 166.3671 15.33988190  3106
KUIPER-00644            
1 69788U 26151AB  26203.47784535  .00006254  00000+0  18284-3 0  9991
2 69788  51.8738 145.2942 0008338 194.6663 165.4083 15.36592720  3129
KUIPER-00646            
1 69789U 26151AC  26203.55017266  .00020773  00000+0  60534-3 0  9998
2 69789  51.8706 145.0228 0009780 190.0094 170.0698 15.35303516  3148
KUIPER-00647            
1 69790U 26151AD  26203.55671078  .00019739  00000+0  58681-3 0  9997
2 69790  51.8676 145.0597 0010798 193.3294 166.7408 15.34698035  3147
KUIPER-00662            
1 69791U 26151AE  26203.58336806 -.01092383  00000+0 -43173-1 0  9995
2 69791  51.8780 145.0517 0008308 179.0220 254.0427 15.27880581  2164
LINK                    
1 69792U 26152A   26202.48382856  .00104063  00000+0  87541-3 0  9996
2 69792  20.5930 278.9369 0023518  85.5169 274.7964 15.67728585  2848
2026-152B               
1 69793U 26152B   26203.52356956  .00058102  00000+0  53786-3 0  9991
2 69793  20.5973 271.3332 0023172  93.3702 266.9396 15.65358949  3001
ISS OBJECT YJ           
1 69794U 98067YJ  26202.88372034  .00037067  00000+0  64630-3 0  9996
2 69794  51.6312 128.2581 0007671 334.3906  25.6702 15.50326616  3034
ISS OBJECT YK           
1 69795U 98067YK  26202.81215189  .00062951  00000+0  10546-2 0  9993
2 69795  51.6315 128.5309 0006375 340.1487  19.9253 15.51228298  3022
ISS OBJECT YL           
1 69796U 98067YL  26203.00765428  .00050624  00000+0  86061-3 0  9992
2 69796  51.6317 127.5857 0008539 335.7584  24.3003 15.50892192  3048
ISS OBJECT YM           
1 69797U 98067YM  26201.07401881  .00050643  00000+0  86101-3 0  9994
2 69797  51.6311 137.1739 0009481 319.6197  40.4088 15.50880460  2739
ISS OBJECT YN           
1 69798U 98067YN  26203.00906778  .00033070  00000+0  57202-3 0  9990
2 69798  51.6321 127.5954 0009085 339.1650  20.8968 15.50596645  3058
PROVES-ELECTRA          
1 69799U 98067YP  26203.00717671  .00049593  00000+0  84215-3 0  9994
2 69799  51.6319 127.5825 0009554 327.4640  32.5760 15.50922619  3046
QIANFAN-201             
1 69800U 26153A   26203.55093264  .00000351  00000+0  15216-3 0  9993
2 69800  88.9930 358.2007 0008580 153.9697 206.1927 14.22095810  2593
QIANFAN-202             
1 69801U 26153B   26203.51680284  .00000182  00000+0  80482-4 0  9994
2 69801  88.9930 358.2143 0007555 153.4407 206.7171 14.18845157  2588
QIANFAN-203             
1 69802U 26153C   26203.50631646  .00000183  00000+0  80455-4 0  9993
2 69802  88.9930 358.2127 0008127 155.2626 204.8955 14.19389708  2585
